NORAD_CAT_ID,OBJECT_NAME,OBJECT_TYPE,EPOCH,MEAN_MOTION,ECCENTRICITY,INCLINATION,RA_OF_ASC_NODE,ARG_OF_PERICENTER,MEAN_ANOMALY,BSTAR,MEAN_MOTION_DOT,MEAN_MOTION_DDOT,TLE_LINE0,TLE_LINE1,TLE_LINE2,SEMIMAJOR_AXIS,PERIOD,APOGEE,PERIGEE,DECAYED
52658.0,STARLINK-4082,PAYLOAD,2023-11-09 23:22:05,15.08852451,0.0001748,53.2177,13.1422,65.3826,294.7348,0.00014863,2.079e-05,0.0,0 STARLINK-4082,1 52658U 22053C   23313.97367439  .00002079  00000-0  14863-3 0  9991,2 52658  53.2177  13.1422 0001748  65.3826 294.7348 15.08852451 82800,6917.842,95.437,540.917,538.498,0.0
52658.0,STARLINK-4082,PAYLOAD,2023-11-10 10:29:47,15.0884872,0.0001209,53.2185,11.0537,90.0479,270.0652,-9.0938e-05,-1.735e-05,0.0,0 STARLINK-4082,1 52658U 22053C   23314.43735201 -.00001735  00000-0 -90938-4 0  9997,2 52658  53.2185  11.0537 0001209  90.0479 270.0652 15.08848720 82870,6917.854,95.437,540.555,538.882,0.0
52658.0,STARLINK-4082,PAYLOAD,2023-11-11 10:20:36,15.08794987,0.0001629,53.2191,6.594,89.9448,270.173,-0.00069621,-0.00011337,0.0,0 STARLINK-4082,1 52658U 22053C   23315.43097858 -.00011337  00000-0 -69621-3 0  9990,2 52658  53.2191   6.5940 0001629  89.9448 270.1730 15.08794987 83024,6918.018,95.44,541.01,538.756,0.0
52658.0,STARLINK-4082,PAYLOAD,2023-11-12 10:11:21,15.0885043,0.0001446,53.2183,2.132,82.107,278.0086,0.00026326,3.905e-05,0.0,0 STARLINK-4082,1 52658U 22053C   23316.42455365  .00003905  00000-0  26326-3 0  9996,2 52658  53.2183   2.1320 0001446  82.1070 278.0086 15.08850430 83175,6917.849,95.437,540.714,538.713,0.0
52658.0,STARLINK-4082,PAYLOAD,2023-11-12 19:43:40,15.0884979,0.0001505,53.2184,0.3488,80.0631,280.0531,0.00018041,2.585e-05,0.0,0 STARLINK-4082,1 52658U 22053C   23316.82199386  .00002585  00000-0  18041-3 0  9996,2 52658  53.2184   0.3488 0001505  80.0631 280.0531 15.08849790 83239,6917.85,95.437,540.757,538.674,0.0
52658.0,STARLINK-4082,PAYLOAD,2023-11-13 03:40:35,15.08848161,0.0001482,53.2185,358.8619,81.17,278.946,0.0001995,2.889e-05,0.0,0 STARLINK-4082,1 52658U 22053C   23317.15319309  .00002889  00000-0  19950-3 0  9999,2 52658  53.2185 358.8619 0001482  81.1700 278.9460 15.08848161 83283,6917.855,95.437,540.746,538.695,0.0
52658.0,STARLINK-4082,PAYLOAD,2023-11-13 11:37:30,15.08862151,0.0001788,53.2193,357.3754,89.7846,270.3351,0.00017365,2.478e-05,0.0,0 STARLINK-4082,1 52658U 22053C   23317.48438283  .00002478  00000-0  17365-3 0  9990,2 52658  53.2193 357.3754 0001788  89.7846 270.3351 15.08862151 83336,6917.813,95.436,540.915,538.441,0.0
52658.0,STARLINK-4082,PAYLOAD,2023-11-13 19:34:28,15.08823636,0.0001561,53.2189,355.8861,86.8107,273.3064,0.00045924,7.025e-05,0.0,0 STARLINK-4082,1 52658U 22053C   23317.81560627  .00007025  00000-0  45924-3 0  9990,2 52658  53.2189 355.8861 0001561  86.8107 273.3064 15.08823636 83384,6917.93,95.439,540.875,538.716,0.0
52658.0,STARLINK-4082,PAYLOAD,2023-11-14 03:31:23,15.08847629,0.0002065,53.2189,354.4015,86.7522,273.3707,-4.987e-05,-1.082e-05,0.0,0 STARLINK-4082,1 52658U 22053C   23318.14680035 -.00001082  00000-0 -49870-4 0  9997,2 52658  53.2189 354.4015 0002065  86.7522 273.3707 15.08847629 83438,6917.857,95.437,541.151,538.294,0.0
52658.0,STARLINK-4082,PAYLOAD,2023-11-14 13:03:41,15.0885041,0.0001906,53.2195,352.6164,86.2257,273.8953,-5.1007e-05,-1.1e-05,0.0,0 STARLINK-4082,1 52658U 22053C   23318.54423506 -.00001100  00000-0 -51007-4 0  9995,2 52658  53.2195 352.6164 0001906  86.2257 273.8953 15.08850410 83499,6917.849,95.437,541.032,538.395,0.0
52658.0,STARLINK-4082,PAYLOAD,2023-11-14 19:25:14,15.08846528,0.0001869,53.2188,351.4243,75.3051,284.8149,-5.0569e-05,-1.093e-05,0.0,0 STARLINK-4082,1 52658U 22053C   23318.80919646 -.00001093  00000-0 -50569-4 0  9992,2 52658  53.2188 351.4243 0001869  75.3051 284.8149 15.08846528 83534,6917.86,95.437,541.018,538.432,0.0
52658.0,STARLINK-4082,PAYLOAD,2023-11-15 01:46:47,15.08833675,0.0001659,53.2192,350.2366,79.483,280.6349,1.1979e-05,-9.7e-07,0.0,0 STARLINK-4082,1 52658U 22053C   23319.07416203 -.00000097  00000-0  11979-4 0  9997,2 52658  53.2192 350.2366 0001659  79.4830 280.6349 15.08833675 83578,6917.9,95.438,540.912,538.617,0.0
52658.0,STARLINK-4082,PAYLOAD,2023-11-15 09:43:43,15.08842995,0.0001887,53.219,348.7501,87.5108,272.61,-8.9446e-05,-1.712e-05,0.0,0 STARLINK-4082,1 52658U 22053C   23319.40535895 -.00001712  00000-0 -89446-4 0  9993,2 52658  53.2190 348.7501 0001887  87.5108 272.6100 15.08842995 83627,6917.871,95.437,541.042,538.431,0.0
52658.0,STARLINK-4082,PAYLOAD,2023-11-15 19:16:01,15.08851847,0.0001958,53.2195,346.9661,80.4267,279.6947,-0.0001634,-2.889e-05,0.0,0 STARLINK-4082,1 52658U 22053C   23319.80279418 -.00002889  00000-0 -16340-3 0  9991,2 52658  53.2195 346.9661 0001958  80.4267 279.6947 15.08851847 83684,6917.844,95.437,541.064,538.355,0.0
52658.0,STARLINK-4082,PAYLOAD,2023-11-16 07:59:06,15.0883821,0.000187,53.2193,344.5873,87.5733,272.5473,9.133e-05,1.166e-05,0.0,0 STARLINK-4082,1 52658U 22053C   23320.33271788  .00001166  00000-0  91330-4 0  9991,2 52658  53.2193 344.5873 0001870  87.5733 272.5473 15.08838210 83764,6917.886,95.438,541.045,538.457,0.0
52658.0,STARLINK-4082,PAYLOAD,2023-11-16 09:34:29,15.08839863,0.000184,53.2189,344.291,88.0636,272.0567,7.9644e-05,9.8e-06,0.0,0 STARLINK-4082,1 52658U 22053C   23320.39895703  .00000980  00000-0  79644-4 0  9993,2 52658  53.2189 344.2910 0001840  88.0636 272.0567 15.08839863 83778,6917.881,95.438,541.019,538.473,0.0
52658.0,STARLINK-4082,PAYLOAD,2023-11-16 19:06:48,15.08841692,0.0001829,53.2189,342.5069,91.4556,268.6646,6.0943e-05,6.82e-06,0.0,0 STARLINK-4082,1 52658U 22053C   23320.79639641  .00000682  00000-0  60943-4 0  9995,2 52658  53.2189 342.5069 0001829  91.4556 268.6646 15.08841692 83839,6917.875,95.437,541.005,538.475,0.0
52658.0,STARLINK-4082,PAYLOAD,2023-11-17 07:49:53,15.08838368,0.0001765,53.2181,340.1272,89.6866,270.4328,0.00011973,1.618e-05,0.0,0 STARLINK-4082,1 52658U 22053C   23321.32631816  .00001618  00000-0  11973-3 0  9999,2 52658  53.2181 340.1272 0001765  89.6866 270.4328 15.08838368 83916,6917.885,95.438,540.971,538.529,0.0
52658.0,STARLINK-4082,PAYLOAD,2023-11-17 18:57:35,15.0883802,0.0001679,53.2177,338.0455,90.3497,269.7688,5.3989e-05,5.71e-06,0.0,0 STARLINK-4082,1 52658U 22053C   23321.78999999  .00000571  00000-0  53989-4 0  9999,2 52658  53.2177 338.0455 0001679  90.3497 269.7688 15.08838020 83985,6917.886,95.438,540.913,538.59,0.0
52658.0,STARLINK-4082,PAYLOAD,2023-11-18 07:40:41,15.08833885,0.0001745,53.2169,335.6671,88.6457,271.4735,9.1983e-05,1.176e-05,0.0,0 STARLINK-4082,1 52658U 22053C   23322.31992290  .00001176  00000-0  91983-4 0  9994,2 52658  53.2169 335.6671 0001745  88.6457 271.4735 15.08833885 84066,6917.899,95.438,540.971,538.557,0.0
52658.0,STARLINK-4082,PAYLOAD,2023-11-19 04:20:41,15.08840608,0.0001844,53.2181,331.8006,91.1822,268.9381,3.9978e-05,3.48e-06,0.0,0 STARLINK-4082,1 52658U 22053C   23323.18103861  .00000348  00000-0  39978-4 0  9994,2 52658  53.2181 331.8006 0001844  91.1822 268.9381 15.08840608 84198,6917.879,95.438,541.019,538.468,0.0
52658.0,STARLINK-4082,PAYLOAD,2023-11-19 10:42:13,15.08846631,0.0001801,53.2176,330.6117,91.2194,268.9004,7.0492e-05,8.34e-06,0.0,0 STARLINK-4082,1 52658U 22053C   23323.44599404  .00000834  00000-0  70492-4 0  9991,2 52658  53.2176 330.6117 0001801  91.2194 268.9004 15.08846631 84237,6917.86,95.437,540.971,538.479,0.0
52658.0,STARLINK-4082,PAYLOAD,2023-11-20 07:22:15,15.08840642,0.0001732,53.2179,326.7455,88.6579,271.4611,6.582e-05,7.6e-06,0.0,0 STARLINK-4082,1 52658U 22053C   23324.30711892  .00000760  00000-0  65820-4 0  9991,2 52658  53.2179 326.7455 0001732  88.6579 271.4611 15.08840642 84364,6917.878,95.438,540.942,538.545,0.0
52658.0,STARLINK-4082,PAYLOAD,2023-11-20 16:54:33,15.08841728,0.0001738,53.2181,324.9611,87.0039,273.1152,3.244e-05,2.28e-06,0.0,0 STARLINK-4082,1 52658U 22053C   23324.70455892  .00000228  00000-0  32440-4 0  9991,2 52658  53.2181 324.9611 0001738  87.0039 273.1152 15.08841728 84423,6917.875,95.437,540.942,538.538,0.0
52658.0,STARLINK-4082,PAYLOAD,2023-11-21 08:48:25,15.08845557,0.0001752,53.2181,321.9885,91.2006,268.9187,2.653e-05,1.34e-06,0.0,0 STARLINK-4082,1 52658U 22053C   23325.36695748  .00000134  00000-0  26530-4 0  9999,2 52658  53.2181 321.9885 0001752  91.2006 268.9187 15.08845557 84525,6917.863,95.437,540.94,538.516,0.0
52658.0,STARLINK-4082,PAYLOAD,2023-11-22 03:53:02,15.08841315,0.0001722,53.2175,318.4203,92.7619,267.357,6.9621e-05,8.2e-06,0.0,0 STARLINK-4082,1 52658U 22053C   23326.16183984  .00000820  00000-0  69621-4 0  9992,2 52658  53.2175 318.4203 0001722  92.7619 267.3570 15.08841315 84646,6917.876,95.437,540.933,538.55,0.0
52658.0,STARLINK-4082,PAYLOAD,2023-11-22 08:39:11,15.08852016,0.0001756,53.2181,317.5275,90.7582,269.3611,0.00016804,2.388e-05,0.0,0 STARLINK-4082,1 52658U 22053C   23326.36055059  .00002388  00000-0  16804-3 0  9990,2 52658  53.2181 317.5275 0001756  90.7582 269.3611 15.08852016 84677,6917.844,95.437,540.923,538.494,0.0
52658.0,STARLINK-4082,PAYLOAD,2023-11-23 03:43:49,15.08838691,0.0001832,53.219,313.956,101.2761,258.8437,0.00011037,1.469e-05,0.0,0 STARLINK-4082,1 52658U 22053C   23327.15543907  .00001469  00000-0  11037-3 0  9994,2 52658  53.2190 313.9560 0001832 101.2761 258.8437 15.08838691 84791,6917.884,95.438,541.017,538.482,0.0
52658.0,STARLINK-4082,PAYLOAD,2023-11-23 08:29:58,15.08849229,0.0001755,53.2177,313.0661,88.2355,271.8838,0.0001233,1.675e-05,0.0,0 STARLINK-4082,1 52658U 22053C   23327.35415295  .00001675  00000-0  12330-3 0  9990,2 52658  53.2177 313.0661 0001755  88.2355 271.8838 15.08849229 84829,6917.852,95.437,540.931,538.503,0.0
52658.0,STARLINK-4082,PAYLOAD,2023-11-23 22:48:28,15.08833322,0.0001576,53.2192,310.3878,105.9806,254.136,-0.00012806,-2.325e-05,0.0,0 STARLINK-4082,1 52658U 22053C   23327.95033102 -.00002325  00000-0 -12806-3 0  9992,2 52658  53.2192 310.3878 0001576 105.9806 254.1360 15.08833322 84916,6917.901,95.438,540.856,538.676,0.0
